{"type": "FeatureCollection", "features": [{"type": "Feature", "properties": {"norad_id": 24946, "name": "IRIDIUM 33", "group": "iridium-33-debris", "lat": 8.733652177738573, "lon": 69.2301349230034, "alt_km": 781.5242869635895, "timestamp": "2025-12-11T15:53:39.928077+00:00", "meta": {"OBJECT_NAME": "IRIDIUM 33", "OBJECT_ID": "1997-051C", "EPOCH": "2025-12-11T07:29:10.501440", "MEAN_MOTION": 14.35036156, "ECCENTRICITY": 0.00068671, "INCLINATION": 86.3869, "RA_OF_ASC_NODE": 68.821, "ARG_OF_PERICENTER": 205.5065, "MEAN_ANOMALY": 154.5793, "EPHEMERIS_TYPE": 0, "CLASSIFICATION_TYPE": "U", "NORAD_CAT_ID": 24946, "ELEMENT_SET_NO": 999, "REV_AT_EPOCH": 47814, "BSTAR": 0.00020296922, "MEAN_MOTION_DOT": 5.98e-06, "MEAN_MOTION_DDOT": 0}, "tle": {"line1": "1 24946U 97051C   25345.31192710  .00000598  00000+0  20297-3 0  9994", "line2": "2 24946  86.3869  68.8210 0006867 205.5065 154.5793 14.35036156478144"}}, "geometry": {"type": "Point", "coordinates": [69.2301349230034, 8.733652177738573]}}, {"type": "Feature", "properties": {"norad_id": 33773, "name": "IRIDIUM 33 DEB", "group": "iridium-33-debris", "lat": -65.71088919091304, "lon": 53.03008440482432, "alt_km": 762.260368626984, "timestamp": "2025-12-11T15:53:39.928118+00:00", "meta": {"OBJECT_NAME": "IRIDIUM 33 DEB", "OBJECT_ID": "1997-051L", "EPOCH": "2025-12-11T06:12:59.400576", "MEAN_MOTION": 14.4325257, "ECCENTRICITY": 0.00123381, "INCLINATION": 86.4013, "RA_OF_ASC_NODE": 61.217, "ARG_OF_PERICENTER": 150.7612, "MEAN_ANOMALY": 209.4282, "EPHEMERIS_TYPE": 0, "CLASSIFICATION_TYPE": "U", "NORAD_CAT_ID": 33773, "ELEMENT_SET_NO": 999, "REV_AT_EPOCH": 88326, "BSTAR": 0.00050978244, "MEAN_MOTION_DOT": 1.736e-05, "MEAN_MOTION_DDOT": 0}, "tle": {"line1": "1 33773U 97051L   25345.25902084  .00001736  00000+0  50978-3 0  9992", "line2": "2 33773  86.4013  61.2170 0012338 150.7612 209.4282 14.43252570883260"}}, "geometry": {"type": "Point", "coordinates": [53.03008440482432, -65.71088919091304]}}, {"type": "Feature", "properties": {"norad_id": 33775, "name": "IRIDIUM 33 DEB", "group": "iridium-33-debris", "lat": 24.16762916482728, "lon": 51.64888805485505, "alt_km": 760.0700024717089, "timestamp": "2025-12-11T15:53:39.928133+00:00", "meta": {"OBJECT_NAME": "IRIDIUM 33 DEB", "OBJECT_ID": "1997-051N", "EPOCH": "2025-12-11T06:04:52.921920", "MEAN_MOTION": 14.41464374, "ECCENTRICITY": 0.00141407, "INCLINATION": 86.3638, "RA_OF_ASC_NODE": 50.1882, "ARG_OF_PERICENTER": 159.1228, "MEAN_ANOMALY": 264.8918, "EPHEMERIS_TYPE": 0, "CLASSIFICATION_TYPE": "U", "NORAD_CAT_ID": 33775, "ELEMENT_SET_NO": 999, "REV_AT_EPOCH": 88119, "BSTAR": 0.000540193, "MEAN_MOTION_DOT": 1.773e-05, "MEAN_MOTION_DDOT": 0}, "tle": {"line1": "1 33775U 97051N   25345.25339030  .00001773  00000+0  54019-3 0  9990", "line2": "2 33775  86.3638  50.1882 0014140 159.1228 264.8918 14.41464374881196"}}, "geometry": {"type": "Point", "coordinates": [51.64888805485505, 24.16762916482728]}}, {"type": "Feature", "properties": {"norad_id": 33776, "name": "IRIDIUM 33 DEB", "group": "iridium-33-debris", "lat": -85.1984387921102, "lon": -50.29559792850697, "alt_km": 768.7963442149512, "timestamp": "2025-12-11T15:53:39.928147+00:00", "meta": {"OBJECT_NAME": "IRIDIUM 33 DEB", "OBJECT_ID": "1997-051P", "EPOCH": "2025-12-11T06:33:14.323680", "MEAN_MOTION": 14.38231867, "ECCENTRICITY": 0.00141716, "INCLINATION": 86.4038, "RA_OF_ASC_NODE": 81.3918, "ARG_OF_PERICENTER": 195.2769, "MEAN_ANOMALY": 217.5982, "EPHEMERIS_TYPE": 0, "CLASSIFICATION_TYPE": "U", "NORAD_CAT_ID": 33776, "ELEMENT_SET_NO": 999, "REV_AT_EPOCH": 88061, "BSTAR": 0.0005174173, "MEAN_MOTION_DOT": 1.592e-05, "MEAN_MOTION_DDOT": 0}, "tle": {"line1": "1 33776U 97051P   25345.27308245  .00001592  00000+0  51742-3 0  9996", "line2": "2 33776  86.4038  81.3918 0014171 195.2769 217.5982 14.38231867880610"}}, "geometry": {"type": "Point", "coordinates": [-50.29559792850697, -85.1984387921102]}}, {"type": "Feature", "properties": {"norad_id": 33777, "name": "IRIDIUM 33 DEB", "group": "iridium-33-debris", "lat": -12.994728520846932, "lon": 34.8345083142523, "alt_km": 712.1813455051715, "timestamp": "2025-12-11T15:53:39.928160+00:00", "meta": {"OBJECT_NAME": "IRIDIUM 33 DEB", "OBJECT_ID": "1997-051Q", "EPOCH": "2025-12-11T04:24:18.065952", "MEAN_MOTION": 14.55595173, "ECCENTRICITY": 0.00051019, "INCLINATION": 86.3785, "RA_OF_ASC_NODE": 35.8801, "ARG_OF_PERICENTER": 256.1395, "MEAN_ANOMALY": 103.9245, "EPHEMERIS_TYPE": 0, "CLASSIFICATION_TYPE": "U", "NORAD_CAT_ID": 33777, "ELEMENT_SET_NO": 999, "REV_AT_EPOCH": 88511, "BSTAR": 0.001355914, "MEAN_MOTION_DOT": 5.934e-05, "MEAN_MOTION_DDOT": 0}, "tle": {"line1": "1 33777U 97051Q   25345.18354243  .00005934  00000+0  13559-2 0  9993", "line2": "2 33777  86.3785  35.8801 0005101 256.1395 103.9245 14.55595173885111"}}, "geometry": {"type": "Point", "coordinates": [34.8345083142523, -12.994728520846932]}}, {"type": "Feature", "properties": {"norad_id": 33850, "name": "IRIDIUM 33 DEB", "group": "iridium-33-debris", "lat": 2.5467524907175325, "lon": 30.806230049434358, "alt_km": 762.3020106831955, "timestamp": "2025-12-11T15:53:39.928171+00:00", "meta": {"OBJECT_NAME": "IRIDIUM 33 DEB", "OBJECT_ID": "1997-051T", "EPOCH": "2025-12-11T04:30:10.253952", "MEAN_MOTION": 14.42141315, "ECCENTRICITY": 0.00120495, "INCLINATION": 86.3419, "RA_OF_ASC_NODE": 30.8472, "ARG_OF_PERICENTER": 165.8293, "MEAN_ANOMALY": 254.2129, "EPHEMERIS_TYPE": 0, "CLASSIFICATION_TYPE": "U", "NORAD_CAT_ID": 33850, "ELEMENT_SET_NO": 999, "REV_AT_EPOCH": 88130, "BSTAR": 0.00045595561, "MEAN_MOTION_DOT": 1.52e-05, "MEAN_MOTION_DDOT": 0}, "tle": {"line1": "1 33850U 97051T   25345.18761868  .00001520  00000+0  45596-3 0  9994", "line2": "2 33850  86.3419  30.8472 0012049 165.8293 254.2129 14.42141315881307"}}, "geometry": {"type": "Point", "coordinates": [30.806230049434358, 2.5467524907175325]}}, {"type": "Feature", "properties": {"norad_id": 33853, "name": "IRIDIUM 33 DEB", "group": "iridium-33-debris", "lat": -10.983817230276726, "lon": 171.06186461948465, "alt_km": 799.4067508797607, "timestamp": "2025-12-11T15:53:39.928183+00:00", "meta": {"OBJECT_NAME": "IRIDIUM 33 DEB", "OBJECT_ID": "1997-051W", "EPOCH": "2025-12-11T06:26:59.500608", "MEAN_MOTION": 13.99049323, "ECCENTRICITY": 0.02070294, "INCLINATION": 86.0001, "RA_OF_ASC_NODE": 350.4562, "ARG_OF_PERICENTER": 240.3711, "MEAN_ANOMALY": 131.4664, "EPHEMERIS_TYPE": 0, "CLASSIFICATION_TYPE": "U", "NORAD_CAT_ID": 33853, "ELEMENT_SET_NO": 999, "REV_AT_EPOCH": 85325, "BSTAR": 0.0032315639, "MEAN_MOTION_DOT": 5.632e-05, "MEAN_MOTION_DDOT": 0}, "tle": {"line1": "1 33853U 97051W   25345.26874422  .00005632  00000+0  32316-2 0  9990", "line2": "2 33853  86.0001 350.4562 0207029 240.3711 131.4664 13.99049323853253"}}, "geometry": {"type": "Point", "coordinates": [171.06186461948465, -10.983817230276726]}}, {"type": "Feature", "properties": {"norad_id": 33860, "name": "IRIDIUM 33 DEB", "group": "iridium-33-debris", "lat": -18.96287541389779, "lon": -151.03978832053872, "alt_km": 679.9263614931851, "timestamp": "2025-12-11T15:53:39.928194+00:00", "meta": {"OBJECT_NAME": "IRIDIUM 33 DEB", "OBJECT_ID": "1997-051AD", "EPOCH": "2025-12-11T03:48:48.164256", "MEAN_MOTION": 14.67334001, "ECCENTRICITY": 0.00076792, "INCLINATION": 86.3835, "RA_OF_ASC_NODE": 27.9377, "ARG_OF_PERICENTER": 3.2947, "MEAN_ANOMALY": 58.2985, "EPHEMERIS_TYPE": 0, "CLASSIFICATION_TYPE": "U", "NORAD_CAT_ID": 33860, "ELEMENT_SET_NO": 999, "REV_AT_EPOCH": 88699, "BSTAR": 0.0018344014, "MEAN_MOTION_DOT": 0.00010386, "MEAN_MOTION_DDOT": 0}, "tle": {"line1": "1 33860U 97051AD  25345.15889079  .00010386  00000+0  18344-2 0  9997", "line2": "2 33860  86.3835  27.9377 0007679   3.2947  58.2985 14.67334001886990"}}, "geometry": {"type": "Point", "coordinates": [-151.03978832053872, -18.96287541389779]}}, {"type": "Feature", "properties": {"norad_id": 33862, "name": "IRIDIUM 33 DEB", "group": "iridium-33-debris", "lat": -46.2723942076294, "lon": -138.23032134064835, "alt_km": 703.4379481453379, "timestamp": "2025-12-11T15:53:39.928205+00:00", "meta": {"OBJECT_NAME": "IRIDIUM 33 DEB", "OBJECT_ID": "1997-051AF", "EPOCH": "2025-12-11T03:41:34.520928", "MEAN_MOTION": 14.69430162, "ECCENTRICITY": 0.0053523, "INCLINATION": 86.4089, "RA_OF_ASC_NODE": 38.2294, "ARG_OF_PERICENTER": 74.4791, "MEAN_ANOMALY": 343.9034, "EPHEMERIS_TYPE": 0, "CLASSIFICATION_TYPE": "U", "NORAD_CAT_ID": 33862, "ELEMENT_SET_NO": 999, "REV_AT_EPOCH": 88800, "BSTAR": 0.0020932779, "MEAN_MOTION_DOT": 0.00012698, "MEAN_MOTION_DDOT": 0}, "tle": {"line1": "1 33862U 97051AF  25345.15387177  .00012698  00000+0  20933-2 0  9996", "line2": "2 33862  86.4089  38.2294 0053523  74.4791 343.9034 14.69430162888003"}}, "geometry": {"type": "Point", "coordinates": [-138.23032134064835, -46.2723942076294]}}, {"type": "Feature", "properties": {"norad_id": 33866, "name": "IRIDIUM 33 DEB", "group": "iridium-33-debris", "lat": 78.0927261837006, "lon": -104.38093362032183, "alt_km": 762.9521950525022, "timestamp": "2025-12-11T15:53:39.928217+00:00", "meta": {"OBJECT_NAME": "IRIDIUM 33 DEB", "OBJECT_ID": "1997-051AK", "EPOCH": "2025-12-11T07:07:53.860224", "MEAN_MOTION": 14.25268294, "ECCENTRICITY": 0.01143657, "INCLINATION": 86.2997, "RA_OF_ASC_NODE": 93.6458, "ARG_OF_PERICENTER": 165.9811, "MEAN_ANOMALY": 224.2624, "EPHEMERIS_TYPE": 0, "CLASSIFICATION_TYPE": "U", "NORAD_CAT_ID": 33866, "ELEMENT_SET_NO": 999, "REV_AT_EPOCH": 86790, "BSTAR": 0.001200381, "MEAN_MOTION_DOT": 3.042e-05, "MEAN_MOTION_DDOT": 0}, "tle": {"line1": "1 33866U 97051AK  25345.29715116  .00003042  00000+0  12004-2 0  9996", "line2": "2 33866  86.2997  93.6458 0114365 165.9811 224.2624 14.25268294867900"}}, "geometry": {"type": "Point", "coordinates": [-104.38093362032183, 78.0927261837006]}}]}